[{"OBJECT_NAME":"STARLINK-32326","OBJECT_ID":"2024-193P","EPOCH":"2026-03-09T18:48:13.645728","MEAN_MOTION":15.30191531,"ECCENTRICITY":0.00010955,"INCLINATION":53.1599,"RA_OF_ASC_NODE":90.3811,"ARG_OF_PERICENTER":96.0061,"MEAN_ANOMALY":264.1064,"EPHEMERIS_TYPE":0,"CLASSIFICATION_TYPE":"U","NORAD_CAT_ID":61674,"ELEMENT_SET_NO":999,"REV_AT_EPOCH":7654,"BSTAR":2.7216775e-5,"MEAN_MOTION_DOT":4.47e-6,"MEAN_MOTION_DDOT":0},{"OBJECT_NAME":"GEOSCAN 4 (RS92S4)","OBJECT_ID":"2025-155S","EPOCH":"2026-03-09T21:50:07.724832","MEAN_MOTION":15.30369837,"ECCENTRICITY":0.00070968,"INCLINATION":97.4465,"RA_OF_ASC_NODE":37.7626,"ARG_OF_PERICENTER":154.7045,"MEAN_ANOMALY":205.4544,"EPHEMERIS_TYPE":0,"CLASSIFICATION_TYPE":"U","NORAD_CAT_ID":64892,"ELEMENT_SET_NO":999,"REV_AT_EPOCH":6562,"BSTAR":0.00068609503,"MEAN_MOTION_DOT":0.00020121,"MEAN_MOTION_DDOT":0}]
